{
    "links": {
        "self": "http://www.neowsapp.com/rest/v1/neo/3335306?api_key=iIulBulltgU6a56xZRHN4H3l9WmuAYTsLGpBGhQ2"
    },
    "id": "3335306",
    "neo_reference_id": "3335306",
    "name": "(2006 LC)",
    "designation": "2006 LC",
    "nasa_jpl_url": "http://ssd.jpl.nasa.gov/sbdb.cgi?sstr=3335306",
    "absolute_magnitude_h": 23.1,
    "estimated_diameter": {
        "kilometers": {
            "estimated_diameter_min": 0.063760979,
            "estimated_diameter_max": 0.1425738833
        },
        "meters": {
            "estimated_diameter_min": 63.7609789875,
            "estimated_diameter_max": 142.5738833281
        },
        "miles": {
            "estimated_diameter_min": 0.0396192233,
            "estimated_diameter_max": 0.0885912765
        },
        "feet": {
            "estimated_diameter_min": 209.1895703015,
            "estimated_diameter_max": 467.7620993781
        }
    },
    "is_potentially_hazardous_asteroid": false,
    "close_approach_data": [
        {
            "close_approach_date": "1923-05-21",
            "close_approach_date_full": "1923-May-21 16:12",
            "epoch_date_close_approach": -1471074480000,
            "relative_velocity": {
                "kilometers_per_second": "15.7188871604",
                "kilometers_per_hour": "56587.9937773111",
                "miles_per_hour": "35161.5786890187"
            },
            "miss_distance": {
                "astronomical": "0.2340010955",
                "lunar": "91.0264261495",
                "kilometers": "35006065.464466585",
                "miles": "21751760.437085473"
            },
            "orbiting_body": "Earth"
        },
        {
            "close_approach_date": "2006-06-09",
            "close_approach_date_full": "2006-Jun-09 19:59",
            "epoch_date_close_approach": 1149883140000,
            "relative_velocity": {
                "kilometers_per_second": "9.3600479369",
                "kilometers_per_hour": "33696.1725730059",
                "miles_per_hour": "20937.4912301547"
            },
            "miss_distance": {
                "astronomical": "0.0429700139",
                "lunar": "16.7153354071",
                "kilometers": "6428222.553310393",
                "miles": "3994312.2759057034"
            },
            "orbiting_body": "Earth"
        },
        {
            "close_approach_date": "2091-05-13",
            "close_approach_date_full": "2091-May-13 01:59",
            "epoch_date_close_approach": 3829859940000,
            "relative_velocity": {
                "kilometers_per_second": "20.8008512349",
                "kilometers_per_hour": "74883.0644454985",
                "miles_per_hour": "46529.4241272599"
            },
            "miss_distance": {
                "astronomical": "0.4177413417",
                "lunar": "162.5013819213",
                "kilometers": "62493214.929262179",
                "miles": "38831483.1172449102"
            },
            "orbiting_body": "Earth"
        }
    ],
    "orbital_data": {
        "orbit_id": "14",
        "orbit_determination_date": "2017-04-06 09:08:30",
        "first_observation_date": "2006-06-01",
        "last_observation_date": "2006-06-16",
        "data_arc_in_days": 15,
        "observations_used": 45,
        "orbit_uncertainty": "8",
        "minimum_orbit_intersection": ".030618",
        "jupiter_tisserand_invariant": "4.486",
        "epoch_osculation": "2453891.5",
        "eccentricity": ".3578757879919547",
        "semi_major_axis": "1.482614146946015",
        "inclination": "11.76985620161782",
        "ascending_node_longitude": "249.7299050704834",
        "orbital_period": "659.3873885496031",
        "perihelion_distance": ".9520224408196898",
        "perihelion_argument": "52.23449402978483",
        "aphelion_distance": "2.013205853072339",
        "perihelion_time": "2453934.496970412381",
        "mean_anomaly": "336.5253178673848",
        "mean_motion": ".5459613062843992",
        "equinox": "J2000",
        "orbit_class": {
            "orbit_class_type": "APO",
            "orbit_class_description": "Near-Earth asteroid orbits which cross the Earth’s orbit similar to that of 1862 Apollo",
            "orbit_class_range": "a (semi-major axis) > 1.0 AU; q (perihelion) < 1.017 AU"
        }
    },
    "is_sentry_object": false
}